{"type": "FeatureCollection", "features": [{"type": "Feature", "properties": {"id": 1, "name_en": "Adabor", "name_bn": null, "division": "Dhaka", "district": "Dhaka", "source": "geoBoundaries gbOpen BGD ADM3", "source_id": "5055444B49102485932636"}, "geometry": {"type": "Polygon", "coordinates": [[[90.35766123900004, 23.77656465000007], [90.35414135500008, 23.775951286000065], [90.35079269900007, 23.77825093000007], [90.34592264400004, 23.77292313600003], [90.34231044500007, 23.772055030000047], [90.34415995600006, 23.768590334000066], [90.34553736100008, 23.76846617800004], [90.34953944100005, 23.76218829100003], [90.35889710100008, 23.76241824500005], [90.35915774400007, 23.770564397000044], [90.36103700200005, 23.773365642000044], [90.36556917300004, 23.774932979000027], [90.36203281400003, 23.777422371000057], [90.35766123900004, 23.77656465000007]]]}}, {"type": "Feature", "properties": {"id": 2, "name_en": "Badda", "name_bn": null, "division": "Dhaka", "district": "Dhaka", "source": "geoBoundaries gbOpen BGD ADM3", "source_id": "5055444B32230680322744"}, "geometry": {"type": "Polygon", "coordinates": [[[90.48576851600006, 23.821326077000037], [90.47973938000007, 23.82301751800003], [90.47343443000005, 23.821381259000077], [90.45546817000007, 23.827620857000056], [90.45385620000008, 23.826774310000076], [90.44825675000004, 23.828079498000022], [90.44197439000004, 23.826008898000055], [90.43628106400007, 23.827481895000062], [90.42911437700008, 23.826070754000057], [90.42956631000004, 23.82157058000007], [90.42165180000006, 23.82051182400005], [90.41899415800003, 23.821631083000057], [90.41672192900006, 23.819882608000057], [90.41784308500007, 23.81635927600007], [90.41513577800004, 23.81631959400005], [90.41532555300006, 23.811029380000036], [90.42108926900005, 23.811909626000045], [90.42018258000007, 23.81056496900004], [90.42347355800007, 23.807242575000032], [90.42224814300005, 23.806665991000045], [90.42603721500006, 23.790493130000073], [90.42610454200008, 23.789075811000032], [90.42204172600003, 23.78878865300004], [90.42044219400003, 23.777199894000034], [90.41756887700006, 23.76983476500004], [90.42369727700003, 23.76892149200006], [90.43362746600008, 23.763233241000023], [90.43604341900004, 23.762839152000026], [90.43694931100003, 23.764765254000054], [90.44182098900006, 23.766254808000042], [90.44159852600006, 23.763860924000028], [90.44441989700005, 23.76328583800006], [90.44603791200007, 23.75910930200007], [90.45448041700007, 23.76012851200005], [90.45478248700005, 23.763922945000047], [90.45228017400007, 23.762564697000073], [90.45214739500005, 23.766029595000077], [90.45595702400004, 23.76848368900005], [90.45661657100004, 23.770813803000067], [90.46198379700007, 23.77359620200008], [90.45873326100008, 23.77567149500004], [90.46276015600006, 23.782376215000056], [90.46540970500007, 23.78342673800006], [90.47161984300004, 23.781801361000078], [90.47198000600008, 23.785326643000076], [90.48107039400008, 23.793490640000073], [90.48182743300003, 23.80285471800005], [90.48419137900004, 23.807856968000067], [90.48360270800003, 23.811176369000066], [90.48538008700007, 23.817063807000068], [90.48778643200006, 23.81763863900005], [90.48576851600006, 23.821326077000037]]]}}, {"type": "Feature", "properties": {"id": 3, "name_en": "Bangshal", "name_bn": null, "division": "Dhaka", "district": "Dhaka", "source": "geoBoundaries gbOpen BGD ADM3", "source_id": "5055444B3033227423351"}, "geometry": {"type": "Polygon", "coordinates": [[[90.41188486400006, 23.722937083000033], [90.40032557600006, 23.723925558000076], [90.39830938800009, 23.719514082000046], [90.40122573100007, 23.713995117000024], [90.40098151900008, 23.712806862000036], [90.39915765300003, 23.712995310000053], [90.39972308700004, 23.710766044000025], [90.40204430800009, 23.70968369800005], [90.40480827600004, 23.714487132000045], [90.41152922200007, 23.713517876000026], [90.41188486400006, 23.722937083000033]]]}}, {"type": "Feature", "properties": {"id": 4, "name_en": "Biman Bandar", "name_bn": null, "division": "Dhaka", "district": "Dhaka", "source": "geoBoundaries gbOpen BGD ADM3", "source_id": "5055444B57714745100095"}, "geometry": {"type": "Polygon", "coordinates": [[[90.40719500200004, 23.857920715000034], [90.40638803900003, 23.85367018900007], [90.40036882300006, 23.860711550000076], [90.39246690700008, 23.86126084800003], [90.38654919500004, 23.857577716000037], [90.38545016100005, 23.856865683000024], [90.39313171900005, 23.84682934600005], [90.39436893800007, 23.841516262000027], [90.39982865100006, 23.838900860000024], [90.39899797200007, 23.834183018000033], [90.40054639800007, 23.832207115000074], [90.40664470400009, 23.83164750900005], [90.41044187400007, 23.834084662000066], [90.41319460500006, 23.833628499000042], [90.42182958100005, 23.840906679000057], [90.42166476200003, 23.845355577000078], [90.42388393800007, 23.847578226000053], [90.42459965200004, 23.849861446000034], [90.42082593200007, 23.85263006200006], [90.41611866100004, 23.85930309300005], [90.40719500200004, 23.857920715000034]]]}}, {"type": "Feature", "properties": {"id": 5, "name_en": "Cantonment", "name_bn": null, "division": "Dhaka", "district": "Dhaka", "source": "geoBoundaries gbOpen BGD ADM3", "source_id": "5055444B56407900252664"}, "geometry": {"type": "Polygon", "coordinates": [[[90.41672192900006, 23.819882608000057], [90.41430107600007, 23.821553705000042], [90.41266279700005, 23.82577178500003], [90.41319460500006, 23.833628499000042], [90.41044187400007, 23.834084662000066], [90.40664470400009, 23.83164750900005], [90.40054639800007, 23.832207115000074], [90.39899797200007, 23.834183018000033], [90.39982865100006, 23.838900860000024], [90.39436893800007, 23.841516262000027], [90.38736259400008, 23.844346319000067], [90.38724804100008, 23.841721722000045], [90.38892951300005, 23.83207710000005], [90.39347710800007, 23.826926627000034], [90.38286571600008, 23.82083616600005], [90.38306273900008, 23.816738563000058], [90.38806259200004, 23.815569805000052], [90.39115842500007, 23.816303176000076], [90.39154104000005, 23.81493841200006], [90.40024393900006, 23.817176817000075], [90.39866595700005, 23.805855931000053], [90.39436691000003, 23.80063606400006], [90.39179960400008, 23.790503381000065], [90.38765073200005, 23.790731081000047], [90.38718259700005, 23.789327549000063], [90.38870824900005, 23.787647063000065], [90.38751871000005, 23.787025119000077], [90.38825853400004, 23.78164498500007], [90.39089020000006, 23.779375711000057], [90.39214514600008, 23.782393327000023], [90.39293577800004, 23.781744367000044], [90.39410245600004, 23.776419877000023], [90.39782497500005, 23.77810970200005], [90.40112331900008, 23.798678547000065], [90.40239795900004, 23.800474930000064], [90.40455683300007, 23.79971025100008], [90.40672969200006, 23.801047443000073], [90.40679816500005, 23.805055370000048], [90.41228515900008, 23.80456293700007], [90.41550687600005, 23.806406166000045], [90.41307965300007, 23.80978191300005], [90.41532555300006, 23.811029380000036], [90.41513577800004, 23.81631959400005], [90.41784308500007, 23.81635927600007], [90.41672192900006, 23.819882608000057]]]}}, {"type": "Feature", "properties": {"id": 6, "name_en": "Chak Bazar", "name_bn": null, "division": "Dhaka", "district": "Dhaka", "source": "geoBoundaries gbOpen BGD ADM3", "source_id": "5055444B82655553221044"}, "geometry": {"type": "Polygon", "coordinates": [[[90.40032557600006, 23.723925558000076], [90.39947620800007, 23.724040811000066], [90.39000959600008, 23.724150116000033], [90.39114274000008, 23.718910367000035], [90.38315947900008, 23.713282616000072], [90.38519273400004, 23.712294547000056], [90.39972308700004, 23.710766044000025], [90.39915765300003, 23.712995310000053], [90.40098151900008, 23.712806862000036], [90.40122573100007, 23.713995117000024], [90.39830938800009, 23.719514082000046], [90.40032557600006, 23.723925558000076]]]}}, {"type": "Feature", "properties": {"id": 7, "name_en": "Dakshinkhan", "name_bn": null, "division": "Dhaka", "district": "Dhaka", "source": "geoBoundaries gbOpen BGD ADM3", "source_id": "5055444B54932712585204"}, "geometry": {"type": "Polygon", "coordinates": [[[90.42388393800007, 23.847578226000053], [90.43417980500004, 23.845019930000035], [90.43663854300007, 23.847606965000068], [90.44224066100008, 23.84662452400005], [90.44706508500008, 23.848866432000023], [90.45301062300007, 23.84586838900003], [90.45392227100007, 23.848754365000048], [90.44898735100008, 23.849210846000062], [90.44729108600006, 23.852304281000045], [90.44801458100005, 23.854581151000048], [90.44373796400004, 23.859707532000073], [90.43933429700007, 23.860024434000024], [90.43844263900007, 23.856988718000025], [90.43427982600008, 23.86343098100008], [90.43720680000007, 23.86605619200003], [90.43395566200007, 23.865255300000058], [90.42977933200007, 23.867748084000027], [90.42800793700007, 23.864815812000074], [90.42238675600004, 23.863413818000026], [90.41894840800006, 23.867338172000075], [90.41922920200005, 23.872949320000032], [90.41559103200007, 23.870347141000025], [90.41616356300005, 23.868361864000065], [90.41380300700007, 23.870399942000063], [90.41903529800004, 23.87793288100005], [90.41835872600006, 23.880208613000036], [90.41520772500007, 23.882007242000043], [90.41631954000007, 23.886038307000035], [90.41193187400006, 23.882793392000053], [90.40649298400007, 23.881967280000026], [90.40719500200004, 23.857920715000034], [90.41611866100004, 23.85930309300005], [90.42082593200007, 23.85263006200006], [90.42459965200004, 23.849861446000034], [90.42388393800007, 23.847578226000053]]]}}, {"type": "Feature", "properties": {"id": 8, "name_en": "Darus Salam", "name_bn": null, "division": "Dhaka", "district": "Dhaka", "source": "geoBoundaries gbOpen BGD ADM3", "source_id": "5055444B58026692506241"}, "geometry": {"type": "Polygon", "coordinates": [[[90.35766123900004, 23.77656465000007], [90.35742813800005, 23.784331918000078], [90.35386199500005, 23.785115994000023], [90.35180721800003, 23.781571754000026], [90.34891733900008, 23.783009900000025], [90.35020582900006, 23.793435329000033], [90.34913759600005, 23.796282020000035], [90.34764583800006, 23.795860960000027], [90.34652441800006, 23.798134290000064], [90.34313840100003, 23.798669792000055], [90.33954014700004, 23.797507977000066], [90.33958603900004, 23.790141874000028], [90.33800222500008, 23.786432427000022], [90.33543925000004, 23.784807649000072], [90.33803509200004, 23.77897601600006], [90.33450929600008, 23.775240281000038], [90.34231044500007, 23.772055030000047], [90.34592264400004, 23.77292313600003], [90.35079269900007, 23.77825093000007], [90.35414135500008, 23.775951286000065], [90.35766123900004, 23.77656465000007]]]}}, {"type": "Feature", "properties": {"id": 9, "name_en": "Demra", "name_bn": null, "division": "Dhaka", "district": "Dhaka", "source": "geoBoundaries gbOpen BGD ADM3", "source_id": "5055444B14528909504793"}, "geometry": {"type": "Polygon", "coordinates": [[[90.48247314500009, 23.761808548000033], [90.47395164500006, 23.761472859000037], [90.47230668500004, 23.754006941000057], [90.46204577300006, 23.752233729000068], [90.45973468300008, 23.750097107000045], [90.46017981800009, 23.742731501000037], [90.46000121500003, 23.740595290000044], [90.46239859600007, 23.740469588000053], [90.46410488700008, 23.73845418600007], [90.46434883900008, 23.73478683600007], [90.45615400100007, 23.73311933100007], [90.45937297600005, 23.725823412000068], [90.46311425200008, 23.725890160000063], [90.46479350600003, 23.719935538000072], [90.46751634400005, 23.720397023000032], [90.46819158000005, 23.719064383000045], [90.47371708100007, 23.72256402000005], [90.47438853300008, 23.72138661100007], [90.47642734200008, 23.70958166400004], [90.47041878700009, 23.706819730000063], [90.46783155000008, 23.702355917000034], [90.46595441500006, 23.702211414000033], [90.46635502900006, 23.700218540000037], [90.46476060200007, 23.699396860000036], [90.46670927800005, 23.694844256000067], [90.46827575700007, 23.685224296000058], [90.47008592900005, 23.68514828600007], [90.47409816800007, 23.690221921000045], [90.47780962100006, 23.691102802000046], [90.47973127900008, 23.693664480000052], [90.48571925900006, 23.69599744800007], [90.48871088900006, 23.69563645900007], [90.48868923200007, 23.69905669900004], [90.49146796700006, 23.700912002000052], [90.49779243200004, 23.701494041000046], [90.49902132800008, 23.70524695900008], [90.50466051200004, 23.70574488500006], [90.51252492200007, 23.709168274000035], [90.51279451900007, 23.709568966000063], [90.50804217200005, 23.714692841000044], [90.50185239400008, 23.71805002900004], [90.49927877700009, 23.722503940000024], [90.50047442300007, 23.72596984200004], [90.49752688900008, 23.730619757000056], [90.48993043400009, 23.735987545000057], [90.49245673800004, 23.74332153100005], [90.48570947800005, 23.74919752200003], [90.48732214000006, 23.755998325000064], [90.48298523700004, 23.758831154000063], [90.48247314500009, 23.761808548000033]]]}}, {"type": "Feature", "properties": {"id": 10, "name_en": "Dhamrai", "name_bn": null, "division": "Dhaka", "district": "Dhaka", "source": "geoBoundaries gbOpen BGD ADM3", "source_id": "5055444B39396107660312"}, "geometry": {"type": "Polygon", "coordinates": [[[90.14755261800008, 24.03354300500007], [90.12889311100008, 24.033239196000068], [90.12456724100008, 24.03103042300006], [90.12369620000004, 24.028677647000052], [90.12064354400007, 24.028553630000033], [90.12015717500003, 24.02536165300006], [90.10993996200006, 24.026528847000066], [90.10966759300004, 24.018810357000064], [90.10817527800003, 24.017570036000052], [90.10215023800004, 24.019037973000025], [90.09617567100008, 24.02699254500004], [90.09405888100008, 24.02735176500005], [90.08983562800006, 24.035025560000065], [90.08444839000003, 24.03537298200007], [90.08165104600005, 24.040669127000058], [90.07508097600004, 24.04115458800004], [90.07383625600005, 24.040651642000057], [90.07449125700003, 24.03381950800008], [90.06979945500007, 24.03236864400003], [90.06594546200006, 24.037443127000074], [90.06473200700003, 24.03540460000005], [90.06541883800008, 24.031666057000052], [90.06359708700006, 24.02925745300007], [90.06009023900003, 24.030409359000032], [90.04073904600006, 24.028389665000077], [90.02470298500003, 24.02104077100006], [90.02203307700006, 24.023907251000026], [90.02061052200008, 24.023577768000052], [90.01963839000007, 24.02874382500005], [90.02196553200008, 24.027878100000066], [90.02608846600003, 24.029615611000054], [90.02717512300006, 24.03394021200006], [90.01742949400006, 24.03611616200004], [90.01729629300007, 24.04434969700003], [90.01201737400004, 24.04252454600004], [90.01060643100004, 24.032323776000055], [90.01235155200004, 24.030637988000024], [90.01727303400008, 24.03130590300003], [90.01944033700005, 24.025731569000072], [90.01742587100006, 24.025207372000068], [90.01824926600005, 24.02173772900005], [90.01389472700004, 24.017562987000076], [90.00491426000008, 24.017463054000075], [90.00463335400008, 24.016191761000073], [90.00716868000006, 24.014898908000077], [90.00759375000007, 24.011362161000022], [90.01347731500005, 24.007608249000043], [90.01342619500008, 24.012419109000064], [90.01970770600008, 24.00968953200004], [90.01982455300003, 24.014255369000068], [90.02213323600006, 24.014815059000057], [90.02397543200004, 24.011757897000052], [90.02304917500004, 24.007543318000046], [90.02487206500007, 24.005412526000043], [90.02970053000007, 24.003649792000033], [90.03141221400006, 24.006063350000034], [90.04297051200007, 24.004547626000033], [90.04419292300008, 24.003174926000042], [90.04338067500004, 23.998061148000033], [90.04505687300008, 23.995989430000066], [90.04794530200007, 23.996275897000032], [90.05106493300008, 23.99926629500004], [90.05643045300008, 23.999556838000046], [90.05606924300008, 23.996972022000023], [90.05210358700003, 23.993585153000026], [90.05018469500004, 23.989002430000028], [90.04395253600006, 23.98654979400004], [90.03884239100006, 23.982591039000056], [90.03906672400007, 23.977747367000063], [90.04432934400006, 23.97356619800007], [90.03803123200004, 23.97165076400006], [90.04698120700004, 23.962425075000056], [90.05061323800004, 23.96061913400007], [90.06043028900007, 23.95769247100003], [90.06594153700007, 23.96039597300006], [90.07396086800009, 23.960252317000027], [90.07371827900005, 23.957658440000046], [90.06896296900004, 23.954014378000068], [90.06481210300007, 23.95294528200003], [90.06351840100007, 23.95094965800007], [90.06764842500007, 23.941643372000044], [90.06596931600006, 23.933482171000037], [90.06688461700008, 23.92846707700005], [90.06915020100007, 23.92669853800004], [90.07366617000008, 23.927005801000064], [90.07471966400004, 23.925818655000057], [90.07401440500007, 23.92326394300005], [90.06673998200006, 23.917111093000074], [90.06699311200003, 23.91138835600003], [90.06923756200007, 23.906820321000055], [90.07188378900008, 23.905123827000068], [90.07595868500005, 23.90637794500003], [90.08038230300008, 23.910882896000032], [90.08285301600006, 23.910899650000033], [90.08576401300007, 23.911375646000067], [90.09322706600005, 23.904880912000067], [90.09311940800006, 23.90117258500004], [90.09783695900006, 23.902013063000027], [90.10847060300006, 23.895319647000065], [90.11318322000005, 23.88779897200004], [90.11266522900007, 23.88518162500003], [90.11604749300005, 23.875580396000032], [90.11798277400004, 23.873502580000036], [90.12167190300005, 23.873448900000028], [90.12674969500006, 23.866503893000072], [90.13044224500004, 23.864552610000032], [90.14627327200003, 23.844476609000026], [90.15093085800004, 23.83423487500005], [90.15051828400004, 23.828241624000043], [90.15430808600007, 23.828792814000053], [90.15567913200005, 23.832978016000027], [90.15968528300004, 23.833162473000073], [90.16628787100007, 23.82866124000003], [90.17187980400007, 23.827795323000032], [90.17210358100004, 23.81786153400003], [90.17370898900003, 23.817978851000078], [90.17532348800006, 23.82212183300004], [90.18099554500003, 23.821313642000064], [90.18540735700003, 23.818302258000074], [90.19513404400004, 23.822226186000023], [90.19767385900008, 23.824607541000034], [90.19719276600006, 23.830302601000028], [90.20393947900004, 23.83079456400003], [90.20354627900008, 23.837984404000053], [90.20638176000006, 23.835711778000075], [90.21259431200008, 23.839446181000028], [90.21868125500004, 23.840167605000033], [90.22741415400003, 23.835302252000076], [90.23960269300005, 23.83211507200008], [90.24576190300007, 23.838399899000024], [90.24380636700005, 23.843864841000027], [90.23865904100006, 23.84530793600004], [90.23801955400006, 23.847013808000042], [90.23612761700008, 23.860049462000063], [90.23699499000008, 23.865130588000056], [90.23196879100004, 23.871332820000077], [90.23430025700009, 23.88171097000003], [90.22907533500006, 23.884447764000072], [90.23015142300005, 23.895641306000073], [90.22674743200008, 23.90038895400005], [90.22848165900007, 23.908913562000066], [90.22686082000007, 23.915751244000035], [90.22481733400008, 23.918173240000044], [90.22460161200007, 23.927839922000032], [90.22808937600007, 23.93048015000005], [90.22798047300006, 23.934565211000063], [90.23166386200006, 23.935863753000035], [90.23107801600008, 23.942638358000067], [90.22553095300003, 23.947537072000046], [90.20992559800004, 23.95683600800004], [90.20317592100008, 23.965896088000022], [90.19847191000008, 23.968027670000026], [90.19995994500005, 23.972679097000025], [90.19868675200007, 23.975326668000037], [90.19021528500008, 23.977693154000065], [90.19075451000003, 23.984649089000072], [90.18667372300007, 23.988383337000073], [90.18601161200007, 23.999246656000025], [90.18329933900009, 24.001678490000074], [90.17637857600005, 24.000330064000025], [90.17083505000005, 24.001102960000026], [90.16635313100005, 24.00938376000005], [90.16763205700005, 24.010870442000055], [90.16209350200006, 24.014786831000038], [90.16161123100005, 24.01958406500006], [90.15966562600005, 24.01946699100006], [90.15895641800006, 24.021480804000078], [90.15599910400005, 24.02156344200006], [90.14944682900006, 24.025719191000064], [90.14706269800007, 24.025401980000026], [90.14755261800008, 24.03354300500007]]]}}, {"type": "Feature", "properties": {"id": 11, "name_en": "Dhanmondi", "name_bn": null, "division": "Dhaka", "district": "Dhaka", "source": "geoBoundaries gbOpen BGD ADM3", "source_id": "5055444B44526348177341"}, "geometry": {"type": "Polygon", "coordinates": [[[90.38320792300004, 23.74009120200003], [90.37823566900005, 23.75126839400008], [90.37497277400007, 23.756925419000027], [90.36386487200008, 23.748789559000045], [90.37028941100004, 23.73248650200003], [90.37046238000005, 23.736155793000023], [90.37635927200006, 23.73828847300007], [90.37845052400007, 23.737383815000044], [90.38353331100006, 23.738472226000056], [90.38320792300004, 23.74009120200003]]]}}, {"type": "Feature", "properties": {"id": 12, "name_en": "Dohar", "name_bn": null, "division": "Dhaka", "district": "Dhaka", "source": "geoBoundaries gbOpen BGD ADM3", "source_id": "5055444B89474781080787"}, "geometry": {"type": "Polygon", "coordinates": [[[90.07816954700007, 23.561423728000022], [90.10200941900007, 23.568579750000026], [90.11380579400009, 23.565358122000077], [90.12989491600007, 23.565098238000076], [90.13499457400007, 23.56160100200003], [90.13637965800007, 23.553951217000076], [90.14791771300008, 23.54097850100004], [90.15825715400007, 23.522147180000047], [90.17004965200005, 23.527356885000074], [90.17431140100007, 23.52458246300006], [90.17645181900008, 23.526845613000035], [90.17814170900004, 23.53663984700006], [90.18096019000006, 23.53886940800004], [90.18158762500008, 23.541400139000075], [90.18045039000003, 23.54938707900004], [90.17745223600008, 23.551467520000074], [90.17716190100003, 23.55575845800007], [90.18114043300005, 23.555792265000036], [90.18576218200008, 23.562928972000066], [90.19221058300008, 23.559380824000073], [90.20346705300005, 23.56426343100003], [90.20567178900006, 23.568944052000063], [90.20121459900008, 23.57097154400003], [90.19739387200008, 23.57724974100006], [90.19204234100005, 23.57719321600007], [90.19021126900003, 23.580599713000026], [90.18104447300004, 23.580952780000075], [90.18288348900006, 23.585094997000056], [90.18210569900003, 23.59007637800005], [90.17708883900008, 23.597635300000036], [90.18029893300007, 23.599931019000053], [90.17906884000007, 23.602884474000064], [90.17625910900006, 23.606140625000023], [90.17339253800003, 23.605649306000032], [90.17021456900005, 23.608086597000067], [90.16812792400003, 23.615798921000078], [90.16890274600007, 23.618732042000033], [90.16468735000007, 23.61968275600003], [90.16090664400008, 23.624675638000042], [90.16280533000008, 23.62852162100006], [90.15902270000004, 23.630157653000026], [90.16096205000008, 23.62814812000005], [90.16069610500006, 23.62612561800006], [90.15773737100005, 23.629320612000072], [90.14993756400008, 23.629994512000053], [90.14519226600004, 23.634017480000068], [90.14663988300003, 23.63644875600005], [90.14922698100008, 23.63639660900003], [90.14730703300006, 23.638764465000065], [90.14607144000007, 23.63912920100006], [90.14387469500008, 23.63643441000005], [90.14376970500007, 23.638210010000023], [90.13878186700003, 23.640781552000078], [90.13833756800005, 23.63872417300007], [90.13646367100006, 23.638150558000063], [90.13812306300008, 23.637236780000023], [90.13501473500008, 23.63635938500005], [90.13580581500008, 23.64317109600006], [90.13391311900006, 23.644349824000074], [90.13423808500005, 23.642116755000075], [90.13029482400003, 23.639483116000065], [90.12813756500003, 23.640514084000074], [90.12666645000007, 23.636282309000023], [90.12267940000004, 23.637269522000054], [90.12140010800005, 23.638153482000064], [90.12354877300004, 23.643946306000032], [90.12273010100006, 23.64629942700003], [90.10497185000008, 23.645447578000073], [90.10025557600005, 23.647069257000055], [90.09801248300005, 23.649769794000065], [90.09208910700005, 23.647226751000062], [90.08700003600006, 23.647043389000032], [90.08552090900008, 23.647894421000046], [90.08692429800004, 23.648818934000076], [90.08615511800008, 23.651054973000043], [90.08119379500005, 23.652542976000063], [90.07531182800005, 23.651864535000072], [90.07408501400005, 23.654250906000073], [90.07133364400005, 23.653841770000042], [90.06891084500006, 23.655303915000047], [90.06764098200006, 23.658879754000054], [90.05953048200007, 23.655094966000036], [90.05604720800005, 23.65500367900006], [90.05368182900008, 23.655718668000077], [90.05300830600004, 23.65881431500003], [90.04602585400005, 23.659254634000035], [90.04453274500008, 23.652579858000024], [90.04202445200008, 23.650103885000078], [90.03948355000006, 23.657095350000077], [90.03578926800003, 23.656502344000046], [90.03558894200006, 23.657944245000067], [90.03245869800008, 23.65814591000003], [90.03251791900004, 23.660940973000038], [90.02920824000006, 23.66625797300003], [90.02794411400004, 23.666374503000043], [90.02732526600005, 23.664393054000072], [90.02444823500008, 23.664267075000055], [90.02301660200004, 23.668493494000074], [90.02055118700008, 23.665207611000028], [90.02061330300006, 23.65873393800007], [90.01830032400005, 23.65249541000003], [90.00715939800006, 23.644709508000062], [90.00769718900006, 23.634942220000028], [90.03107364900006, 23.629876418000038], [90.04476068000008, 23.629011571000035], [90.04327038000008, 23.623109059000058], [90.04761215300005, 23.61305935400003], [90.039007, 23.609392738000054], [90.04054123200007, 23.598901283000032], [90.04281770900008, 23.595215276000033], [90.05564064500004, 23.584081059000027], [90.04648820300008, 23.57393396300006], [90.05714337500007, 23.571747281000057], [90.07403576400009, 23.565494494000063], [90.07816954700007, 23.561423728000022]]]}}, {"type": "Feature", "properties": {"id": 13, "name_en": "Gendaria", "name_bn": null, "division": "Dhaka", "district": "Dhaka", "source": "geoBoundaries gbOpen BGD ADM3", "source_id": "5055444B38357461991586"}, "geometry": {"type": "Polygon", "coordinates": [[[90.42603262600005, 23.716382382000063], [90.42429840000005, 23.717860870000038], [90.42238120000007, 23.716048605000026], [90.41986198100005, 23.717024321000054], [90.41803949500007, 23.710497272000055], [90.42061717900003, 23.708621686000072], [90.41765752500004, 23.702370518000066], [90.41943984000005, 23.701809937000064], [90.41708008700004, 23.699702996000042], [90.42029088500004, 23.695989078000025], [90.42379293000005, 23.69821373700006], [90.42351055400007, 23.70000561200004], [90.42478098500004, 23.699301906000073], [90.42572932200005, 23.700478626000063], [90.42627741300004, 23.699179860000072], [90.42652481200008, 23.701416213000073], [90.42917530100004, 23.701718460000052], [90.42412663400006, 23.71018506100006], [90.42353836400008, 23.712141159000055], [90.42647718900008, 23.71177006700003], [90.42603262600005, 23.716382382000063]]]}}, {"type": "Feature", "properties": {"id": 14, "name_en": "Gulshan", "name_bn": null, "division": "Dhaka", "district": "Dhaka", "source": "geoBoundaries gbOpen BGD ADM3", "source_id": "5055444B56461784969328"}, "geometry": {"type": "Polygon", "coordinates": [[[90.41532555300006, 23.811029380000036], [90.41307965300007, 23.80978191300005], [90.41550687600005, 23.806406166000045], [90.41228515900008, 23.80456293700007], [90.40679816500005, 23.805055370000048], [90.40672969200006, 23.801047443000073], [90.40455683300007, 23.79971025100008], [90.40239795900004, 23.800474930000064], [90.40112331900008, 23.798678547000065], [90.39782497500005, 23.77810970200005], [90.39786025200004, 23.77810454100006], [90.40004582900008, 23.773337785000024], [90.41395299500005, 23.772226388000036], [90.41520743100006, 23.770258882000064], [90.41756887700006, 23.76983476500004], [90.42044219400003, 23.777199894000034], [90.42204172600003, 23.78878865300004], [90.42610454200008, 23.789075811000032], [90.42603721500006, 23.790493130000073], [90.42224814300005, 23.806665991000045], [90.42347355800007, 23.807242575000032], [90.42018258000007, 23.81056496900004], [90.42108926900005, 23.811909626000045], [90.41532555300006, 23.811029380000036]]]}}, {"type": "Feature", "properties": {"id": 15, "name_en": "Hazaribagh", "name_bn": null, "division": "Dhaka", "district": "Dhaka", "source": "geoBoundaries gbOpen BGD ADM3", "source_id": "5055444B79082430711641"}, "geometry": {"type": "Polygon", "coordinates": [[[90.36386487200008, 23.748789559000045], [90.35616959000004, 23.74538959100005], [90.35462373200005, 23.74751127600007], [90.35341388700004, 23.745533099000056], [90.35103206200006, 23.746215533000054], [90.35499154600006, 23.753897809000023], [90.35649125600008, 23.75399851800006], [90.35149464400007, 23.75807231400006], [90.34650416300008, 23.75389103200007], [90.33942653500009, 23.752031807000037], [90.33786858600007, 23.750300095000057], [90.34208051500008, 23.748348544000066], [90.35251252400008, 23.738300649000053], [90.35383403400004, 23.738512153000045], [90.35861872700008, 23.72770887400003], [90.36027857300007, 23.72776716100003], [90.36064479600003, 23.72536759700006], [90.36557370800006, 23.724589801000036], [90.36512315900006, 23.72333737500003], [90.37565833800005, 23.72171987200005], [90.37728242300005, 23.726007046000063], [90.37557919900007, 23.72959124600004], [90.37028941100004, 23.73248650200003], [90.36386487200008, 23.748789559000045]]]}}, {"type": "Feature", "properties": {"id": 16, "name_en": "Jatrabari", "name_bn": null, "division": "Dhaka", "district": "Dhaka", "source": "geoBoundaries gbOpen BGD ADM3", "source_id": "5055444B25595964672870"}, "geometry": {"type": "Polygon", "coordinates": [[[90.45615400100007, 23.73311933100007], [90.44737917100008, 23.729627376000053], [90.44636824500003, 23.726998454000068], [90.44812804500003, 23.724469912000075], [90.44682711600007, 23.723280257000056], [90.43214467400009, 23.72255456000005], [90.43121723800004, 23.719668222000053], [90.42837034700005, 23.720332246000055], [90.42773345600006, 23.716749492000076], [90.42603262600005, 23.716382382000063], [90.42647718900008, 23.71177006700003], [90.42353836400008, 23.712141159000055], [90.42412663400006, 23.71018506100006], [90.42948406700003, 23.707730862000062], [90.43369931500007, 23.703425050000078], [90.43827257200007, 23.702979937000066], [90.43871102400004, 23.701090651000072], [90.44188889900005, 23.700249778000057], [90.44309279700008, 23.698219015000063], [90.44957048500004, 23.703072794000036], [90.46670927800005, 23.694844256000067], [90.46476060200007, 23.699396860000036], [90.46635502900006, 23.700218540000037], [90.46595441500006, 23.702211414000033], [90.46783155000008, 23.702355917000034], [90.47041878700009, 23.706819730000063], [90.47642734200008, 23.70958166400004], [90.47438853300008, 23.72138661100007], [90.47371708100007, 23.72256402000005], [90.46819158000005, 23.719064383000045], [90.46751634400005, 23.720397023000032], [90.46479350600003, 23.719935538000072], [90.46311425200008, 23.725890160000063], [90.45937297600005, 23.725823412000068], [90.45615400100007, 23.73311933100007]]]}}, {"type": "Feature", "properties": {"id": 17, "name_en": "Kadamtali", "name_bn": null, "division": "Dhaka", "district": "Dhaka", "source": "geoBoundaries gbOpen BGD ADM3", "source_id": "5055444B98895982185439"}, "geometry": {"type": "Polygon", "coordinates": [[[90.46670927800005, 23.694844256000067], [90.44957048500004, 23.703072794000036], [90.44309279700008, 23.698219015000063], [90.44188889900005, 23.700249778000057], [90.43871102400004, 23.701090651000072], [90.43553700800004, 23.70023770800003], [90.43450584400006, 23.693624020000073], [90.43829950900005, 23.687640204000047], [90.43632098000006, 23.687137568000026], [90.43428207100004, 23.68927211500005], [90.42722220200005, 23.688665383000057], [90.42667994500005, 23.687297810000075], [90.44542812700007, 23.668837766000024], [90.44896385600003, 23.668106478000027], [90.45262215200006, 23.672810471000048], [90.45386328700005, 23.677556437000078], [90.45575867200006, 23.677121928000076], [90.45860381100005, 23.679025465000052], [90.45834769300006, 23.68034605300005], [90.46192739200006, 23.683527456000036], [90.46481572300007, 23.68274774300005], [90.46827575700007, 23.685224296000058], [90.46670927800005, 23.694844256000067]]]}}, {"type": "Feature", "properties": {"id": 18, "name_en": "Kafrul", "name_bn": null, "division": "Dhaka", "district": "Dhaka", "source": "geoBoundaries gbOpen BGD ADM3", "source_id": "5055444B63983691041165"}, "geometry": {"type": "Polygon", "coordinates": [[[90.38306273900008, 23.816738563000058], [90.38297891500008, 23.811696762000054], [90.37765694700005, 23.81138640900008], [90.37459229900008, 23.806166019000045], [90.36856213200008, 23.807102061000023], [90.37651038700005, 23.788648799000043], [90.37250026500004, 23.78812742300005], [90.36967511500006, 23.783372727000028], [90.37207098800008, 23.78479085500004], [90.37295679300007, 23.782770860000028], [90.37840598600008, 23.783977184000037], [90.38329578800005, 23.765456461000042], [90.38898647000008, 23.764570886000058], [90.38990601400008, 23.775302339000064], [90.39410245600004, 23.776419877000023], [90.39293577800004, 23.781744367000044], [90.39214514600008, 23.782393327000023], [90.39089020000006, 23.779375711000057], [90.38825853400004, 23.78164498500007], [90.38751871000005, 23.787025119000077], [90.38870824900005, 23.787647063000065], [90.38718259700005, 23.789327549000063], [90.38765073200005, 23.790731081000047], [90.39179960400008, 23.790503381000065], [90.39436691000003, 23.80063606400006], [90.39866595700005, 23.805855931000053], [90.40024393900006, 23.817176817000075], [90.39154104000005, 23.81493841200006], [90.39115842500007, 23.816303176000076], [90.38806259200004, 23.815569805000052], [90.38306273900008, 23.816738563000058]]]}}, {"type": "Feature", "properties": {"id": 19, "name_en": "Kalabagan", "name_bn": null, "division": "Dhaka", "district": "Dhaka", "source": "geoBoundaries gbOpen BGD ADM3", "source_id": "5055444B44586905762707"}, "geometry": {"type": "Polygon", "coordinates": [[[90.38320792300004, 23.74009120200003], [90.38369228900007, 23.741502694000076], [90.39182644100003, 23.741673021000054], [90.39321992300006, 23.74998151500006], [90.38736793100009, 23.751005426000063], [90.38248945600003, 23.753043865000052], [90.37823566900005, 23.75126839400008], [90.38320792300004, 23.74009120200003]]]}}, {"type": "Feature", "properties": {"id": 20, "name_en": "Kamrangir Char", "name_bn": null, "division": "Dhaka", "district": "Dhaka", "source": "geoBoundaries gbOpen BGD ADM3", "source_id": "5055444B25875561692739"}, "geometry": {"type": "Polygon", "coordinates": [[[90.38315947900008, 23.713282616000072], [90.38119748200006, 23.71426402900005], [90.37797824100005, 23.71076583100006], [90.37351804300005, 23.71036765300005], [90.37167063800007, 23.71408823300004], [90.36030086500006, 23.720524132000037], [90.36206098200006, 23.71238505100007], [90.36738553700008, 23.707405149000067], [90.38642804000006, 23.708761847000062], [90.38519273400004, 23.712294547000056], [90.38315947900008, 23.713282616000072]]]}}, {"type": "Feature", "properties": {"id": 21, "name_en": "Keraniganj", "name_bn": null, "division": "Dhaka", "district": "Dhaka", "source": "geoBoundaries gbOpen BGD ADM3", "source_id": "5055444B13645595955380"}, "geometry": {"type": "Polygon", "coordinates": [[[90.39972308700004, 23.710766044000025], [90.38519273400004, 23.712294547000056], [90.38642804000006, 23.708761847000062], [90.36738553700008, 23.707405149000067], [90.36206098200006, 23.71238505100007], [90.36030086500006, 23.720524132000037], [90.35861872700008, 23.72770887400003], [90.35383403400004, 23.738512153000045], [90.35251252400008, 23.738300649000053], [90.34208051500008, 23.748348544000066], [90.33948754000005, 23.744794866000063], [90.33741047600006, 23.746092747000034], [90.33359487700005, 23.742826726000033], [90.33085965800007, 23.744272169000055], [90.32657529700003, 23.74279542200003], [90.32275114800007, 23.74387663500005], [90.31706826800007, 23.748583073000077], [90.31168405100004, 23.757572954000068], [90.31277157500006, 23.771973717000037], [90.31082729000008, 23.773614790000067], [90.30114111400007, 23.77347196100004], [90.29190347600007, 23.770631458000025], [90.28936614600008, 23.767724928000064], [90.28630604300008, 23.749822433000077], [90.28206751000005, 23.751541900000063], [90.27697739200005, 23.746215671000073], [90.26579513700005, 23.74463032400007], [90.25968104200007, 23.747890193000046], [90.25662799000008, 23.75161615600007], [90.25672997600003, 23.762026608000042], [90.25165546800008, 23.770561145000045], [90.24584412000007, 23.77678547900007], [90.24112256200004, 23.778138211000055], [90.23653815100005, 23.779737858000033], [90.22623125900003, 23.76427992400005], [90.22464045300006, 23.758015882000052], [90.21973391200004, 23.752122388000032], [90.21855734600007, 23.748314554000046], [90.21981441300005, 23.743992923000064], [90.22363777500004, 23.739244748000033], [90.23790592300008, 23.735745893000058], [90.24083463500006, 23.73133795800004], [90.25106549600008, 23.72487634600003], [90.25417811000005, 23.721744844000057], [90.25551166900004, 23.715085034000026], [90.27287518400004, 23.693213334000063], [90.27944416300005, 23.680072650000056], [90.28618321000005, 23.673856036000075], [90.30969445300008, 23.659157020000066], [90.33148076500004, 23.64173762200005], [90.34526053800005, 23.63697443700005], [90.34988574100004, 23.637192713000047], [90.35558744800005, 23.639846643000055], [90.36512701200007, 23.650989966000054], [90.36825592800005, 23.652653041000065], [90.39047133300005, 23.649856714000066], [90.39576085800007, 23.641553041000066], [90.40892829800003, 23.631394432000036], [90.43019340800004, 23.608605170000033], [90.43353181000003, 23.61031999100004], [90.43678797200005, 23.616032475000054], [90.44673251400008, 23.623869890000037], [90.45049382800005, 23.624732357000028], [90.45320863900008, 23.623805384000036], [90.46994856500004, 23.629157081000074], [90.47268829200004, 23.632455252000057], [90.47197868200004, 23.638766668000073], [90.44839999200008, 23.665324671000064], [90.44896385600003, 23.668106478000027], [90.44542812700007, 23.668837766000024], [90.42667994500005, 23.687297810000075], [90.42722220200005, 23.688665383000057], [90.42029088500004, 23.695989078000025], [90.41708008700004, 23.699702996000042], [90.41186598300004, 23.703543543000023], [90.40204430800009, 23.70968369800005], [90.39972308700004, 23.710766044000025]]]}}, {"type": "Feature", "properties": {"id": 22, "name_en": "Khilgaon", "name_bn": null, "division": "Dhaka", "district": "Dhaka", "source": "geoBoundaries gbOpen BGD ADM3", "source_id": "5055444B61701169401467"}, "geometry": {"type": "Polygon", "coordinates": [[[90.43362746600008, 23.763233241000023], [90.43233812400007, 23.760133894000035], [90.42932736400007, 23.76097201600004], [90.42495022300005, 23.75068697300003], [90.41823806700006, 23.752397033000022], [90.41600552200003, 23.74948579100004], [90.42352308400007, 23.74808077700004], [90.42663275500007, 23.743974168000022], [90.43380376000005, 23.74571675100003], [90.43425042800004, 23.74284155400005], [90.43956707200005, 23.744722804000048], [90.44168501500008, 23.747105154000053], [90.44195986600005, 23.74495584700003], [90.44823304500005, 23.744233817000065], [90.45470411800005, 23.74135783400004], [90.45712267800008, 23.74079351000006], [90.46017981800009, 23.742731501000037], [90.45973468300008, 23.750097107000045], [90.46204577300006, 23.752233729000068], [90.47230668500004, 23.754006941000057], [90.47395164500006, 23.761472859000037], [90.48247314500009, 23.761808548000033], [90.48243510900005, 23.773362720000023], [90.47889314800005, 23.777578910000045], [90.47161984300004, 23.781801361000078], [90.46540970500007, 23.78342673800006], [90.46276015600006, 23.782376215000056], [90.45873326100008, 23.77567149500004], [90.46198379700007, 23.77359620200008], [90.45661657100004, 23.770813803000067], [90.45595702400004, 23.76848368900005], [90.45214739500005, 23.766029595000077], [90.45228017400007, 23.762564697000073], [90.45478248700005, 23.763922945000047], [90.45448041700007, 23.76012851200005], [90.44603791200007, 23.75910930200007], [90.44441989700005, 23.76328583800006], [90.44159852600006, 23.763860924000028], [90.44182098900006, 23.766254808000042], [90.43694931100003, 23.764765254000054], [90.43604341900004, 23.762839152000026], [90.43362746600008, 23.763233241000023]]]}}, {"type": "Feature", "properties": {"id": 23, "name_en": "Khilkhet", "name_bn": null, "division": "Dhaka", "district": "Dhaka", "source": "geoBoundaries gbOpen BGD ADM3", "source_id": "5055444B65231246155988"}, "geometry": {"type": "Polygon", "coordinates": [[[90.48576851600006, 23.821326077000037], [90.48660886400006, 23.826101793000078], [90.48426506700008, 23.82813759800007], [90.48393931300006, 23.83158104900008], [90.48046479000004, 23.832214754000063], [90.47724506400004, 23.83497701700003], [90.47175488400006, 23.842493197000067], [90.47126942300008, 23.84730829600005], [90.46568898300006, 23.843657767000025], [90.46407007400006, 23.84630177300005], [90.45855745500006, 23.846675619000052], [90.45392227100007, 23.848754365000048], [90.45301062300007, 23.84586838900003], [90.44706508500008, 23.848866432000023], [90.44224066100008, 23.84662452400005], [90.43663854300007, 23.847606965000068], [90.43417980500004, 23.845019930000035], [90.42388393800007, 23.847578226000053], [90.42166476200003, 23.845355577000078], [90.42182958100005, 23.840906679000057], [90.41319460500006, 23.833628499000042], [90.41266279700005, 23.82577178500003], [90.41430107600007, 23.821553705000042], [90.41672192900006, 23.819882608000057], [90.41899415800003, 23.821631083000057], [90.42165180000006, 23.82051182400005], [90.42956631000004, 23.82157058000007], [90.42911437700008, 23.826070754000057], [90.43628106400007, 23.827481895000062], [90.44197439000004, 23.826008898000055], [90.44825675000004, 23.828079498000022], [90.45385620000008, 23.826774310000076], [90.45546817000007, 23.827620857000056], [90.47343443000005, 23.821381259000077], [90.47973938000007, 23.82301751800003], [90.48576851600006, 23.821326077000037]]]}}, {"type": "Feature", "properties": {"id": 24, "name_en": "Kotwali", "name_bn": null, "division": "Dhaka", "district": "Dhaka", "source": "geoBoundaries gbOpen BGD ADM3", "source_id": "5055444B96747808832933"}, "geometry": {"type": "Polygon", "coordinates": [[[90.40204430800009, 23.70968369800005], [90.41186598300004, 23.703543543000023], [90.41152922200007, 23.713517876000026], [90.40480827600004, 23.714487132000045], [90.40204430800009, 23.70968369800005]]]}}, {"type": "Feature", "properties": {"id": 25, "name_en": "Lalbagh", "name_bn": null, "division": "Dhaka", "district": "Dhaka", "source": "geoBoundaries gbOpen BGD ADM3", "source_id": "5055444B37083431015696"}, "geometry": {"type": "Polygon", "coordinates": [[[90.39947620800007, 23.724040811000066], [90.39088118000006, 23.726426566000043], [90.38744431300006, 23.729914714000074], [90.38709034200008, 23.732637642000043], [90.37557919900007, 23.72959124600004], [90.37728242300005, 23.726007046000063], [90.37565833800005, 23.72171987200005], [90.36512315900006, 23.72333737500003], [90.36557370800006, 23.724589801000036], [90.36064479600003, 23.72536759700006], [90.36027857300007, 23.72776716100003], [90.35861872700008, 23.72770887400003], [90.36030086500006, 23.720524132000037], [90.37167063800007, 23.71408823300004], [90.37351804300005, 23.71036765300005], [90.37797824100005, 23.71076583100006], [90.38119748200006, 23.71426402900005], [90.38315947900008, 23.713282616000072], [90.39114274000008, 23.718910367000035], [90.39000959600008, 23.724150116000033], [90.39947620800007, 23.724040811000066]]]}}, {"type": "Feature", "properties": {"id": 26, "name_en": "Mirpur", "name_bn": null, "division": "Dhaka", "district": "Dhaka", "source": "geoBoundaries gbOpen BGD ADM3", "source_id": "5055444B1093476169518"}, "geometry": {"type": "Polygon", "coordinates": [[[90.36203281400003, 23.777422371000057], [90.36600479500004, 23.782454120000068], [90.36967511500006, 23.783372727000028], [90.37250026500004, 23.78812742300005], [90.37651038700005, 23.788648799000043], [90.36856213200008, 23.807102061000023], [90.36763446900005, 23.810468705000062], [90.36224420200006, 23.81052691900004], [90.35450452400005, 23.80698578700003], [90.35156894300007, 23.80602592200006], [90.35526372400005, 23.79986486400003], [90.34913759600005, 23.796282020000035], [90.35020582900006, 23.793435329000033], [90.34891733900008, 23.783009900000025], [90.35180721800003, 23.781571754000026], [90.35386199500005, 23.785115994000023], [90.35742813800005, 23.784331918000078], [90.35766123900004, 23.77656465000007], [90.36203281400003, 23.777422371000057]]]}}, {"type": "Feature", "properties": {"id": 27, "name_en": "Mohammadpur", "name_bn": null, "division": "Dhaka", "district": "Dhaka", "source": "geoBoundaries gbOpen BGD ADM3", "source_id": "5055444B96237484517929"}, "geometry": {"type": "Polygon", "coordinates": [[[90.34415995600006, 23.768590334000066], [90.34050541800008, 23.766015696000068], [90.32973517100004, 23.750954712000066], [90.33332836100004, 23.749192995000044], [90.33786858600007, 23.750300095000057], [90.33942653500009, 23.752031807000037], [90.34650416300008, 23.75389103200007], [90.35149464400007, 23.75807231400006], [90.35649125600008, 23.75399851800006], [90.35499154600006, 23.753897809000023], [90.35103206200006, 23.746215533000054], [90.35341388700004, 23.745533099000056], [90.35462373200005, 23.74751127600007], [90.35616959000004, 23.74538959100005], [90.36386487200008, 23.748789559000045], [90.37497277400007, 23.756925419000027], [90.37823566900005, 23.75126839400008], [90.38248945600003, 23.753043865000052], [90.38181687000008, 23.758587539000075], [90.37422910500004, 23.758158313000024], [90.36556917300004, 23.774932979000027], [90.36103700200005, 23.773365642000044], [90.35915774400007, 23.770564397000044], [90.35889710100008, 23.76241824500005], [90.34953944100005, 23.76218829100003], [90.34553736100008, 23.76846617800004], [90.34415995600006, 23.768590334000066]]]}}, {"type": "Feature", "properties": {"id": 28, "name_en": "Motijheel", "name_bn": null, "division": "Dhaka", "district": "Dhaka", "source": "geoBoundaries gbOpen BGD ADM3", "source_id": "5055444B92723626214353"}, "geometry": {"type": "Polygon", "coordinates": [[[90.41600552200003, 23.74948579100004], [90.41296112300006, 23.749940735000052], [90.41249389500007, 23.74556330300004], [90.41427962000006, 23.74415660300008], [90.41986824600008, 23.73993563500005], [90.41519629000004, 23.732220769000037], [90.41390374600007, 23.722618658000044], [90.42168308500004, 23.721505387000036], [90.42878207200005, 23.722336507000023], [90.42839390200004, 23.73858882600007], [90.42663275500007, 23.743974168000022], [90.42352308400007, 23.74808077700004], [90.41600552200003, 23.74948579100004]]]}}, {"type": "Feature", "properties": {"id": 29, "name_en": "Nawabganj", "name_bn": null, "division": "Dhaka", "district": "Dhaka", "source": "geoBoundaries gbOpen BGD ADM3", "source_id": "5055444B6233610222310"}, "geometry": {"type": "Polygon", "coordinates": [[[90.20567178900006, 23.568944052000063], [90.20613309100008, 23.579808231000072], [90.20876699900003, 23.589159317000053], [90.21461754400008, 23.591792874000078], [90.21709415100008, 23.594574355000077], [90.22142312000005, 23.595755492000023], [90.22293750500006, 23.599236595000036], [90.22593445600006, 23.601432311000053], [90.22490436500004, 23.606473532000052], [90.22619784100004, 23.613551088000065], [90.23650541100005, 23.621391967000022], [90.23718749200003, 23.62895472400004], [90.24062233700005, 23.63287359700007], [90.24528322300006, 23.632336189000057], [90.24729095200007, 23.63349201500006], [90.24810421900008, 23.63681193900004], [90.24835574400004, 23.64573304700008], [90.24673508500007, 23.649463323000077], [90.24960533100005, 23.654479224000056], [90.25395018100005, 23.653669385000057], [90.26323272500008, 23.65622088300006], [90.26821199500006, 23.65307179200005], [90.27350625300005, 23.662411380000037], [90.28618321000005, 23.673856036000075], [90.27944416300005, 23.680072650000056], [90.27287518400004, 23.693213334000063], [90.25551166900004, 23.715085034000026], [90.23673333200009, 23.715669283000068], [90.23602937400005, 23.71324848000006], [90.22536646000003, 23.70922678000005], [90.21819107700009, 23.71158442500007], [90.21194253700008, 23.721551610000063], [90.20599115900006, 23.725912821000065], [90.20387248600008, 23.725663842000074], [90.20293505600006, 23.722390740000037], [90.19801015800005, 23.723514349000027], [90.19339800700004, 23.72179889800003], [90.19090897200005, 23.722329837000075], [90.18839921900008, 23.716561608000063], [90.18577020600009, 23.72232198000006], [90.18282645700003, 23.721973777000073], [90.17638801400005, 23.726252570000042], [90.16957171200005, 23.727212009000027], [90.16394938400003, 23.72535847300003], [90.15958962900004, 23.725659981000035], [90.15562356000004, 23.733219275000067], [90.15868078100004, 23.739006096000026], [90.15701804300005, 23.745239753000078], [90.15423905600005, 23.747690960000057], [90.14890835400007, 23.746429359000047], [90.14568220500007, 23.74815540900005], [90.14234722300006, 23.74575922200006], [90.13693104200007, 23.745850490000066], [90.13466293600004, 23.740627661000076], [90.13130406600004, 23.738784501000055], [90.12938849000005, 23.734681903000023], [90.12382139100004, 23.734559439000066], [90.12093686500003, 23.72608117900006], [90.11674277400004, 23.72491579900003], [90.11754052100008, 23.720791215000077], [90.11470355800003, 23.717157126000075], [90.10516785100003, 23.718832689000067], [90.10476300300007, 23.72707302300006], [90.10759309400004, 23.72838646400004], [90.09959877500006, 23.73013004300003], [90.09511963100005, 23.729009990000065], [90.08449204800007, 23.729504489000078], [90.08366898200006, 23.728336334000062], [90.08182541400004, 23.725466623000045], [90.08094237100005, 23.716956606000053], [90.07901347800004, 23.71966515200006], [90.07587408200004, 23.718661272000077], [90.07476450000007, 23.72285467100005], [90.06936465800004, 23.724330079000026], [90.06964035000004, 23.726753536000047], [90.05879569200005, 23.725013038000043], [90.05572145900004, 23.72722040800005], [90.05123130900006, 23.725760924000042], [90.05270414200004, 23.71872509700006], [90.05095893000004, 23.712830720000056], [90.04534881900008, 23.711344327000063], [90.04229258800007, 23.712995918000047], [90.04306566900004, 23.707127273000026], [90.04061895400008, 23.70582496700007], [90.04013742400008, 23.70102307800005], [90.03674258600006, 23.700318241000048], [90.03985907900005, 23.69899079000004], [90.03993229400004, 23.695809561000033], [90.04258452900007, 23.694365877000052], [90.03673569000006, 23.69538976700005], [90.03830055900005, 23.690285335000056], [90.03473397500005, 23.68694858300006], [90.03775411400005, 23.685202866000054], [90.03752347300008, 23.68360582400004], [90.03621548500007, 23.68195257900004], [90.03494571300007, 23.683276732000024], [90.03469014500007, 23.68115466000006], [90.03070250300004, 23.68053619500006], [90.03053419500009, 23.676398671000072], [90.02637890800008, 23.671915806000072], [90.02232588800007, 23.67425874500003], [90.01862048300006, 23.671557879000034], [90.02055118700008, 23.665207611000028], [90.02301660200004, 23.668493494000074], [90.02444823500008, 23.664267075000055], [90.02732526600005, 23.664393054000072], [90.02794411400004, 23.666374503000043], [90.02920824000006, 23.66625797300003], [90.03251791900004, 23.660940973000038], [90.03245869800008, 23.65814591000003], [90.03558894200006, 23.657944245000067], [90.03578926800003, 23.656502344000046], [90.03948355000006, 23.657095350000077], [90.04202445200008, 23.650103885000078], [90.04453274500008, 23.652579858000024], [90.04602585400005, 23.659254634000035], [90.05300830600004, 23.65881431500003], [90.05368182900008, 23.655718668000077], [90.05604720800005, 23.65500367900006], [90.05953048200007, 23.655094966000036], [90.06764098200006, 23.658879754000054], [90.06891084500006, 23.655303915000047], [90.07133364400005, 23.653841770000042], [90.07408501400005, 23.654250906000073], [90.07531182800005, 23.651864535000072], [90.08119379500005, 23.652542976000063], [90.08615511800008, 23.651054973000043], [90.08692429800004, 23.648818934000076], [90.08552090900008, 23.647894421000046], [90.08700003600006, 23.647043389000032], [90.09208910700005, 23.647226751000062], [90.09801248300005, 23.649769794000065], [90.10025557600005, 23.647069257000055], [90.10497185000008, 23.645447578000073], [90.12273010100006, 23.64629942700003], [90.12354877300004, 23.643946306000032], [90.12140010800005, 23.638153482000064], [90.12267940000004, 23.637269522000054], [90.12666645000007, 23.636282309000023], [90.12813756500003, 23.640514084000074], [90.13029482400003, 23.639483116000065], [90.13423808500005, 23.642116755000075], [90.13391311900006, 23.644349824000074], [90.13580581500008, 23.64317109600006], [90.13501473500008, 23.63635938500005], [90.13812306300008, 23.637236780000023], [90.13646367100006, 23.638150558000063], [90.13833756800005, 23.63872417300007], [90.13878186700003, 23.640781552000078], [90.14376970500007, 23.638210010000023], [90.14387469500008, 23.63643441000005], [90.14607144000007, 23.63912920100006], [90.14730703300006, 23.638764465000065], [90.14922698100008, 23.63639660900003], [90.14663988300003, 23.63644875600005], [90.14519226600004, 23.634017480000068], [90.14993756400008, 23.629994512000053], [90.15773737100005, 23.629320612000072], [90.16069610500006, 23.62612561800006], [90.16096205000008, 23.62814812000005], [90.15902270000004, 23.630157653000026], [90.16280533000008, 23.62852162100006], [90.16090664400008, 23.624675638000042], [90.16468735000007, 23.61968275600003], [90.16890274600007, 23.618732042000033], [90.16812792400003, 23.615798921000078], [90.17021456900005, 23.608086597000067], [90.17339253800003, 23.605649306000032], [90.17625910900006, 23.606140625000023], [90.17906884000007, 23.602884474000064], [90.18029893300007, 23.599931019000053], [90.17708883900008, 23.597635300000036], [90.18210569900003, 23.59007637800005], [90.18288348900006, 23.585094997000056], [90.18104447300004, 23.580952780000075], [90.19021126900003, 23.580599713000026], [90.19204234100005, 23.57719321600007], [90.19739387200008, 23.57724974100006], [90.20121459900008, 23.57097154400003], [90.20567178900006, 23.568944052000063]]]}}, {"type": "Feature", "properties": {"id": 30, "name_en": "New Market", "name_bn": null, "division": "Dhaka", "district": "Dhaka", "source": "geoBoundaries gbOpen BGD ADM3", "source_id": "5055444B9752476477947"}, "geometry": {"type": "Polygon", "coordinates": [[[90.37028941100004, 23.73248650200003], [90.37557919900007, 23.72959124600004], [90.38709034200008, 23.732637642000043], [90.39182644100003, 23.741673021000054], [90.38369228900007, 23.741502694000076], [90.38320792300004, 23.74009120200003], [90.38353331100006, 23.738472226000056], [90.37845052400007, 23.737383815000044], [90.37635927200006, 23.73828847300007], [90.37046238000005, 23.736155793000023], [90.37028941100004, 23.73248650200003]]]}}, {"type": "Feature", "properties": {"id": 31, "name_en": "Pallabi", "name_bn": null, "division": "Dhaka", "district": "Dhaka", "source": "geoBoundaries gbOpen BGD ADM3", "source_id": "5055444B7396550141885"}, "geometry": {"type": "Polygon", "coordinates": [[[90.38724804100008, 23.841721722000045], [90.38414202400008, 23.842823130000056], [90.38143899600004, 23.836326377000034], [90.38380711900004, 23.824794562000022], [90.38217347000005, 23.822873583000046], [90.37764843300005, 23.822866101000045], [90.37760215300005, 23.82977489700005], [90.36667028900007, 23.836827389000064], [90.36741053300005, 23.839043652000043], [90.36582673600003, 23.844371469000066], [90.36290932000009, 23.844932732000075], [90.36347697000008, 23.848430328000063], [90.35559132900005, 23.84776283000008], [90.35328516800007, 23.845404461000044], [90.35602082500003, 23.84321796200004], [90.35450348500007, 23.829156262000026], [90.35112370900003, 23.82788392300006], [90.35132045700004, 23.820990873000028], [90.352707, 23.82066141000007], [90.35125064400006, 23.817623054000023], [90.35267673800007, 23.816955913000072], [90.35297572100006, 23.81381337700003], [90.35611084800007, 23.814403466000044], [90.35670601000004, 23.81193881300004], [90.35295906100004, 23.811013821000074], [90.35450452400005, 23.80698578700003], [90.36224420200006, 23.81052691900004], [90.36763446900005, 23.810468705000062], [90.36856213200008, 23.807102061000023], [90.37459229900008, 23.806166019000045], [90.37765694700005, 23.81138640900008], [90.38297891500008, 23.811696762000054], [90.38306273900008, 23.816738563000058], [90.38286571600008, 23.82083616600005], [90.39347710800007, 23.826926627000034], [90.38892951300005, 23.83207710000005], [90.38724804100008, 23.841721722000045]]]}}, {"type": "Feature", "properties": {"id": 32, "name_en": "Paltan", "name_bn": null, "division": "Dhaka", "district": "Dhaka", "source": "geoBoundaries gbOpen BGD ADM3", "source_id": "5055444B25185864846738"}, "geometry": {"type": "Polygon", "coordinates": [[[90.41427962000006, 23.74415660300008], [90.40877749200007, 23.737507768000057], [90.41031646400006, 23.73624902000006], [90.41190834600008, 23.722991042000046], [90.41390374600007, 23.722618658000044], [90.41519629000004, 23.732220769000037], [90.41986824600008, 23.73993563500005], [90.41427962000006, 23.74415660300008]]]}}, {"type": "Feature", "properties": {"id": 33, "name_en": "Ramna", "name_bn": null, "division": "Dhaka", "district": "Dhaka", "source": "geoBoundaries gbOpen BGD ADM3", "source_id": "5055444B66987540891927"}, "geometry": {"type": "Polygon", "coordinates": [[[90.41296112300006, 23.749940735000052], [90.41635169000006, 23.75588569300004], [90.40901550300003, 23.761133404000077], [90.39869249100008, 23.75164991500003], [90.39412411500007, 23.747612540000034], [90.39467742000005, 23.74590583500003], [90.39638420500006, 23.746375272000023], [90.39516239900007, 23.744420757000057], [90.39599463500008, 23.741479903000027], [90.39854890600003, 23.742135421000057], [90.40360679700007, 23.738575194000077], [90.40424430800005, 23.73657957300003], [90.41031646400006, 23.73624902000006], [90.40877749200007, 23.737507768000057], [90.41427962000006, 23.74415660300008], [90.41249389500007, 23.74556330300004], [90.41296112300006, 23.749940735000052]]]}}, {"type": "Feature", "properties": {"id": 34, "name_en": "Rampura", "name_bn": null, "division": "Dhaka", "district": "Dhaka", "source": "geoBoundaries gbOpen BGD ADM3", "source_id": "5055444B30627422876303"}, "geometry": {"type": "Polygon", "coordinates": [[[90.41756887700006, 23.76983476500004], [90.41520743100006, 23.770258882000064], [90.41536906800008, 23.76765258100005], [90.40901550300003, 23.761133404000077], [90.41635169000006, 23.75588569300004], [90.41296112300006, 23.749940735000052], [90.41600552200003, 23.74948579100004], [90.41823806700006, 23.752397033000022], [90.42495022300005, 23.75068697300003], [90.42932736400007, 23.76097201600004], [90.43233812400007, 23.760133894000035], [90.43362746600008, 23.763233241000023], [90.42369727700003, 23.76892149200006], [90.41756887700006, 23.76983476500004]]]}}, {"type": "Feature", "properties": {"id": 35, "name_en": "Sabujbagh", "name_bn": null, "division": "Dhaka", "district": "Dhaka", "source": "geoBoundaries gbOpen BGD ADM3", "source_id": "5055444B47617762942552"}, "geometry": {"type": "Polygon", "coordinates": [[[90.46017981800009, 23.742731501000037], [90.45712267800008, 23.74079351000006], [90.45470411800005, 23.74135783400004], [90.44823304500005, 23.744233817000065], [90.44195986600005, 23.74495584700003], [90.44168501500008, 23.747105154000053], [90.43956707200005, 23.744722804000048], [90.43425042800004, 23.74284155400005], [90.43380376000005, 23.74571675100003], [90.42663275500007, 23.743974168000022], [90.42839390200004, 23.73858882600007], [90.42878207200005, 23.722336507000023], [90.42837034700005, 23.720332246000055], [90.43121723800004, 23.719668222000053], [90.43214467400009, 23.72255456000005], [90.44682711600007, 23.723280257000056], [90.44812804500003, 23.724469912000075], [90.44636824500003, 23.726998454000068], [90.44737917100008, 23.729627376000053], [90.45615400100007, 23.73311933100007], [90.46434883900008, 23.73478683600007], [90.46410488700008, 23.73845418600007], [90.46239859600007, 23.740469588000053], [90.46000121500003, 23.740595290000044], [90.46017981800009, 23.742731501000037]]]}}, {"type": "Feature", "properties": {"id": 36, "name_en": "Savar", "name_bn": null, "division": "Dhaka", "district": "Dhaka", "source": "geoBoundaries gbOpen BGD ADM3", "source_id": "5055444B14680374784380"}, "geometry": {"type": "Polygon", "coordinates": [[[90.34231044500007, 23.772055030000047], [90.33450929600008, 23.775240281000038], [90.33803509200004, 23.77897601600006], [90.33543925000004, 23.784807649000072], [90.33800222500008, 23.786432427000022], [90.33958603900004, 23.790141874000028], [90.33954014700004, 23.797507977000066], [90.34313840100003, 23.798669792000055], [90.34331891800008, 23.803833084000075], [90.33962919500004, 23.811227560000077], [90.34148879500003, 23.817485780000027], [90.34101882200008, 23.82173659500006], [90.34300200900003, 23.82466730400006], [90.33707163500009, 23.832139694000034], [90.33767998000008, 23.838656361000062], [90.34100918000007, 23.842302215000075], [90.33712449700005, 23.847918235000066], [90.34298320700003, 23.853879197000026], [90.34823266500007, 23.853034628000046], [90.35060630300006, 23.86025786700003], [90.35368819200005, 23.861416727000062], [90.35314283200006, 23.869312723000064], [90.35631804500008, 23.872651575000077], [90.35151450000006, 23.87879001500005], [90.35188468000007, 23.88191425800005], [90.34982274000004, 23.883248553000044], [90.34834030800005, 23.896625482000047], [90.34449043500007, 23.902369143000044], [90.34777058300006, 23.91156742800007], [90.34832250800008, 23.929157795000037], [90.34551337000005, 23.947143544000028], [90.34084216000008, 23.95556983700004], [90.33740284300006, 23.95556839900007], [90.33561935500006, 23.954045848000078], [90.33891680200009, 23.953132552000056], [90.33972440100007, 23.951431564000075], [90.33915955600008, 23.94871521400006], [90.33546643800008, 23.94788445000006], [90.33071677700008, 23.950384848000056], [90.33042364100004, 23.954911234000065], [90.31736635200008, 23.957524843000044], [90.31916317300005, 23.950553245000037], [90.30017395600004, 23.948835874000054], [90.30028793400004, 23.954291183000066], [90.29781203400006, 23.961874128000034], [90.28201890900004, 23.964994139000055], [90.28132068100007, 23.96737544000007], [90.27042828900005, 23.96281392900005], [90.26865240400008, 23.965225858000053], [90.26965313800008, 23.968476872000053], [90.26004734400004, 23.97122008300005], [90.26201803400005, 23.97540265200007], [90.26018990500006, 23.975518667000074], [90.25578024500004, 23.980956202000073], [90.25614097100004, 23.983790620000036], [90.25371065000007, 23.983621351000068], [90.25011705300005, 23.991615773000035], [90.25586066100004, 23.994913818000043], [90.25438668200007, 23.999037260000023], [90.25199812900007, 24.000267904000054], [90.25632720300007, 24.00833616500006], [90.26024820200007, 24.01002367800004], [90.26002618000007, 24.01482753700003], [90.25826132100008, 24.01674875200007], [90.25447940700008, 24.01681265800005], [90.25233306100006, 24.018559438000068], [90.25060479400008, 24.022954784000035], [90.25329277000003, 24.02721077600006], [90.24602980500003, 24.03331995700006], [90.24326542600005, 24.03380364800006], [90.23868054400003, 24.02968875700003], [90.24115883100006, 24.029745278000064], [90.24116977400007, 24.02441113900005], [90.23970042100007, 24.022841262000043], [90.24122765000004, 24.012276734000068], [90.24003926400007, 24.009375282000065], [90.22270512000006, 24.010241448000045], [90.21595903000008, 24.005076716000076], [90.20951259700007, 24.009885206000035], [90.20796268400005, 24.006601249000028], [90.20431157800004, 24.005277843000044], [90.20307495400004, 24.009637014000077], [90.19889971400005, 24.009574181000062], [90.19764313000007, 24.007653617000074], [90.19435201700009, 24.008249441000032], [90.19178143200008, 24.014040134000027], [90.18422227400004, 24.010281801000076], [90.18608995900007, 24.00736492900006], [90.18287623200007, 24.007095004000064], [90.18091003300003, 24.004432801000064], [90.18472929500007, 24.00212500300006], [90.18329933900009, 24.001678490000074], [90.18601161200007, 23.999246656000025], [90.18667372300007, 23.988383337000073], [90.19075451000003, 23.984649089000072], [90.19021528500008, 23.977693154000065], [90.19868675200007, 23.975326668000037], [90.19995994500005, 23.972679097000025], [90.19847191000008, 23.968027670000026], [90.20317592100008, 23.965896088000022], [90.20992559800004, 23.95683600800004], [90.22553095300003, 23.947537072000046], [90.23107801600008, 23.942638358000067], [90.23166386200006, 23.935863753000035], [90.22798047300006, 23.934565211000063], [90.22808937600007, 23.93048015000005], [90.22460161200007, 23.927839922000032], [90.22481733400008, 23.918173240000044], [90.22686082000007, 23.915751244000035], [90.22848165900007, 23.908913562000066], [90.22674743200008, 23.90038895400005], [90.23015142300005, 23.895641306000073], [90.22907533500006, 23.884447764000072], [90.23430025700009, 23.88171097000003], [90.23196879100004, 23.871332820000077], [90.23699499000008, 23.865130588000056], [90.23612761700008, 23.860049462000063], [90.23801955400006, 23.847013808000042], [90.23865904100006, 23.84530793600004], [90.24380636700005, 23.843864841000027], [90.24576190300007, 23.838399899000024], [90.24765911800006, 23.80972597500005], [90.24112256200004, 23.778138211000055], [90.24584412000007, 23.77678547900007], [90.25165546800008, 23.770561145000045], [90.25672997600003, 23.762026608000042], [90.25662799000008, 23.75161615600007], [90.25968104200007, 23.747890193000046], [90.26579513700005, 23.74463032400007], [90.27697739200005, 23.746215671000073], [90.28206751000005, 23.751541900000063], [90.28630604300008, 23.749822433000077], [90.28936614600008, 23.767724928000064], [90.29190347600007, 23.770631458000025], [90.30114111400007, 23.77347196100004], [90.31082729000008, 23.773614790000067], [90.31277157500006, 23.771973717000037], [90.31168405100004, 23.757572954000068], [90.31706826800007, 23.748583073000077], [90.32275114800007, 23.74387663500005], [90.32657529700003, 23.74279542200003], [90.33085965800007, 23.744272169000055], [90.33359487700005, 23.742826726000033], [90.33741047600006, 23.746092747000034], [90.33948754000005, 23.744794866000063], [90.34208051500008, 23.748348544000066], [90.33786858600007, 23.750300095000057], [90.33332836100004, 23.749192995000044], [90.32973517100004, 23.750954712000066], [90.34050541800008, 23.766015696000068], [90.34415995600006, 23.768590334000066], [90.34231044500007, 23.772055030000047]]]}}, {"type": "Feature", "properties": {"id": 37, "name_en": "Shah Ali", "name_bn": null, "division": "Dhaka", "district": "Dhaka", "source": "geoBoundaries gbOpen BGD ADM3", "source_id": "5055444B88449011386405"}, "geometry": {"type": "Polygon", "coordinates": [[[90.34913759600005, 23.796282020000035], [90.35526372400005, 23.79986486400003], [90.35156894300007, 23.80602592200006], [90.35450452400005, 23.80698578700003], [90.35295906100004, 23.811013821000074], [90.35670601000004, 23.81193881300004], [90.35611084800007, 23.814403466000044], [90.35297572100006, 23.81381337700003], [90.35267673800007, 23.816955913000072], [90.35125064400006, 23.817623054000023], [90.352707, 23.82066141000007], [90.35132045700004, 23.820990873000028], [90.35112370900003, 23.82788392300006], [90.34971486800004, 23.82522453400003], [90.34601781500004, 23.827625348000026], [90.34300200900003, 23.82466730400006], [90.34101882200008, 23.82173659500006], [90.34148879500003, 23.817485780000027], [90.33962919500004, 23.811227560000077], [90.34331891800008, 23.803833084000075], [90.34313840100003, 23.798669792000055], [90.34652441800006, 23.798134290000064], [90.34764583800006, 23.795860960000027], [90.34913759600005, 23.796282020000035]]]}}, {"type": "Feature", "properties": {"id": 38, "name_en": "Shahbagh", "name_bn": null, "division": "Dhaka", "district": "Dhaka", "source": "geoBoundaries gbOpen BGD ADM3", "source_id": "5055444B26697181188091"}, "geometry": {"type": "Polygon", "coordinates": [[[90.41188486400006, 23.722937083000033], [90.41190834600008, 23.722991042000046], [90.41031646400006, 23.73624902000006], [90.40424430800005, 23.73657957300003], [90.40360679700007, 23.738575194000077], [90.39854890600003, 23.742135421000057], [90.39599463500008, 23.741479903000027], [90.39516239900007, 23.744420757000057], [90.39638420500006, 23.746375272000023], [90.39467742000005, 23.74590583500003], [90.39412411500007, 23.747612540000034], [90.39321992300006, 23.74998151500006], [90.39182644100003, 23.741673021000054], [90.38709034200008, 23.732637642000043], [90.38744431300006, 23.729914714000074], [90.39088118000006, 23.726426566000043], [90.39947620800007, 23.724040811000066], [90.40032557600006, 23.723925558000076], [90.41188486400006, 23.722937083000033]]]}}, {"type": "Feature", "properties": {"id": 39, "name_en": "Sher-e-bangla Nagar", "name_bn": null, "division": "Dhaka", "district": "Dhaka", "source": "geoBoundaries gbOpen BGD ADM3", "source_id": "5055444B71144810702424"}, "geometry": {"type": "Polygon", "coordinates": [[[90.36556917300004, 23.774932979000027], [90.37422910500004, 23.758158313000024], [90.38181687000008, 23.758587539000075], [90.38248945600003, 23.753043865000052], [90.38736793100009, 23.751005426000063], [90.39007174300008, 23.758254871000076], [90.38395384000006, 23.75811168200005], [90.38329578800005, 23.765456461000042], [90.37840598600008, 23.783977184000037], [90.37295679300007, 23.782770860000028], [90.37207098800008, 23.78479085500004], [90.36967511500006, 23.783372727000028], [90.36600479500004, 23.782454120000068], [90.36203281400003, 23.777422371000057], [90.36556917300004, 23.774932979000027]]]}}, {"type": "Feature", "properties": {"id": 40, "name_en": "Shyampur", "name_bn": null, "division": "Dhaka", "district": "Dhaka", "source": "geoBoundaries gbOpen BGD ADM3", "source_id": "5055444B82614645252879"}, "geometry": {"type": "Polygon", "coordinates": [[[90.42029088500004, 23.695989078000025], [90.42722220200005, 23.688665383000057], [90.43428207100004, 23.68927211500005], [90.43632098000006, 23.687137568000026], [90.43829950900005, 23.687640204000047], [90.43450584400006, 23.693624020000073], [90.43553700800004, 23.70023770800003], [90.43871102400004, 23.701090651000072], [90.43827257200007, 23.702979937000066], [90.43369931500007, 23.703425050000078], [90.42948406700003, 23.707730862000062], [90.42412663400006, 23.71018506100006], [90.42917530100004, 23.701718460000052], [90.42652481200008, 23.701416213000073], [90.42627741300004, 23.699179860000072], [90.42572932200005, 23.700478626000063], [90.42478098500004, 23.699301906000073], [90.42351055400007, 23.70000561200004], [90.42379293000005, 23.69821373700006], [90.42029088500004, 23.695989078000025]]]}}, {"type": "Feature", "properties": {"id": 41, "name_en": "Sutrapur", "name_bn": null, "division": "Dhaka", "district": "Dhaka", "source": "geoBoundaries gbOpen BGD ADM3", "source_id": "5055444B49503871645568"}, "geometry": {"type": "Polygon", "coordinates": [[[90.41152922200007, 23.713517876000026], [90.41186598300004, 23.703543543000023], [90.41708008700004, 23.699702996000042], [90.41943984000005, 23.701809937000064], [90.41765752500004, 23.702370518000066], [90.42061717900003, 23.708621686000072], [90.41803949500007, 23.710497272000055], [90.41986198100005, 23.717024321000054], [90.42238120000007, 23.716048605000026], [90.42429840000005, 23.717860870000038], [90.42603262600005, 23.716382382000063], [90.42773345600006, 23.716749492000076], [90.42837034700005, 23.720332246000055], [90.42878207200005, 23.722336507000023], [90.42168308500004, 23.721505387000036], [90.41390374600007, 23.722618658000044], [90.41190834600008, 23.722991042000046], [90.41188486400006, 23.722937083000033], [90.41152922200007, 23.713517876000026]]]}}, {"type": "Feature", "properties": {"id": 42, "name_en": "Tejgaon", "name_bn": null, "division": "Dhaka", "district": "Dhaka", "source": "geoBoundaries gbOpen BGD ADM3", "source_id": "5055444B91995345267504"}, "geometry": {"type": "Polygon", "coordinates": [[[90.39410245600004, 23.776419877000023], [90.38990601400008, 23.775302339000064], [90.38898647000008, 23.764570886000058], [90.38329578800005, 23.765456461000042], [90.38395384000006, 23.75811168200005], [90.39007174300008, 23.758254871000076], [90.38736793100009, 23.751005426000063], [90.39321992300006, 23.74998151500006], [90.39412411500007, 23.747612540000034], [90.39869249100008, 23.75164991500003], [90.39414875200004, 23.75383895300007], [90.39786025200004, 23.77810454100006], [90.39782497500005, 23.77810970200005], [90.39410245600004, 23.776419877000023]]]}}, {"type": "Feature", "properties": {"id": 43, "name_en": "Tejgaon Ind. Area", "name_bn": null, "division": "Dhaka", "district": "Dhaka", "source": "geoBoundaries gbOpen BGD ADM3", "source_id": "5055444B57500985162038"}, "geometry": {"type": "Polygon", "coordinates": [[[90.39786025200004, 23.77810454100006], [90.39414875200004, 23.75383895300007], [90.39869249100008, 23.75164991500003], [90.40901550300003, 23.761133404000077], [90.41536906800008, 23.76765258100005], [90.41520743100006, 23.770258882000064], [90.41395299500005, 23.772226388000036], [90.40004582900008, 23.773337785000024], [90.39786025200004, 23.77810454100006]]]}}, {"type": "Feature", "properties": {"id": 44, "name_en": "Turag", "name_bn": null, "division": "Dhaka", "district": "Dhaka", "source": "geoBoundaries gbOpen BGD ADM3", "source_id": "5055444B30733148378014"}, "geometry": {"type": "Polygon", "coordinates": [[[90.38654919500004, 23.857577716000037], [90.37942342800005, 23.869160744000055], [90.37920589000004, 23.87245414700004], [90.37961191000005, 23.875275199000043], [90.38716915100008, 23.878605650000054], [90.38776327300008, 23.885475623000048], [90.38715633400005, 23.88698332200005], [90.38463579400008, 23.887211751000052], [90.38697735900007, 23.887719504000074], [90.38768497800004, 23.889598699000032], [90.38558649500004, 23.88961785400005], [90.38541474700008, 23.892797203000043], [90.38222983300005, 23.893041138000058], [90.38283925600007, 23.894913657000075], [90.38476376900007, 23.894900654000025], [90.38569363900007, 23.896067801000072], [90.38429433500005, 23.897361384000078], [90.37715303900006, 23.89804009100004], [90.37279514400007, 23.894798854000044], [90.36941125800007, 23.895553346000042], [90.36456805200004, 23.89282480600008], [90.36318066900003, 23.894299422000074], [90.35364907000007, 23.885856158000024], [90.35550040700008, 23.88444448200005], [90.35489336800003, 23.882090360000063], [90.35188468000007, 23.88191425800005], [90.35151450000006, 23.87879001500005], [90.35631804500008, 23.872651575000077], [90.35314283200006, 23.869312723000064], [90.35368819200005, 23.861416727000062], [90.35060630300006, 23.86025786700003], [90.34823266500007, 23.853034628000046], [90.34298320700003, 23.853879197000026], [90.33712449700005, 23.847918235000066], [90.34100918000007, 23.842302215000075], [90.33767998000008, 23.838656361000062], [90.33707163500009, 23.832139694000034], [90.34300200900003, 23.82466730400006], [90.34601781500004, 23.827625348000026], [90.34971486800004, 23.82522453400003], [90.35112370900003, 23.82788392300006], [90.35450348500007, 23.829156262000026], [90.35602082500003, 23.84321796200004], [90.35328516800007, 23.845404461000044], [90.35559132900005, 23.84776283000008], [90.36347697000008, 23.848430328000063], [90.36290932000009, 23.844932732000075], [90.36582673600003, 23.844371469000066], [90.36741053300005, 23.839043652000043], [90.36667028900007, 23.836827389000064], [90.37760215300005, 23.82977489700005], [90.37764843300005, 23.822866101000045], [90.38217347000005, 23.822873583000046], [90.38380711900004, 23.824794562000022], [90.38143899600004, 23.836326377000034], [90.38414202400008, 23.842823130000056], [90.38724804100008, 23.841721722000045], [90.38736259400008, 23.844346319000067], [90.39436893800007, 23.841516262000027], [90.39313171900005, 23.84682934600005], [90.38545016100005, 23.856865683000024], [90.38654919500004, 23.857577716000037]]]}}, {"type": "Feature", "properties": {"id": 45, "name_en": "Uttar Khan", "name_bn": null, "division": "Dhaka", "district": "Dhaka", "source": "geoBoundaries gbOpen BGD ADM3", "source_id": "5055444B65870568835453"}, "geometry": {"type": "Polygon", "coordinates": [[[90.45392227100007, 23.848754365000048], [90.45855745500006, 23.846675619000052], [90.46407007400006, 23.84630177300005], [90.46561442600006, 23.853762088000053], [90.47086102200007, 23.858283662000076], [90.47164969300007, 23.86607690900007], [90.45960371900009, 23.87962353200004], [90.46156691600004, 23.88337089600003], [90.45966786700006, 23.884806526000034], [90.46075027100005, 23.893196827000054], [90.45780062000006, 23.896447100000046], [90.44850456800003, 23.895780711000043], [90.44616848800007, 23.898426314000062], [90.44251567400005, 23.898548826000024], [90.43820062800006, 23.901063418000035], [90.41897922500004, 23.88582372700006], [90.41631954000007, 23.886038307000035], [90.41520772500007, 23.882007242000043], [90.41835872600006, 23.880208613000036], [90.41903529800004, 23.87793288100005], [90.41380300700007, 23.870399942000063], [90.41616356300005, 23.868361864000065], [90.41559103200007, 23.870347141000025], [90.41922920200005, 23.872949320000032], [90.41894840800006, 23.867338172000075], [90.42238675600004, 23.863413818000026], [90.42800793700007, 23.864815812000074], [90.42977933200007, 23.867748084000027], [90.43395566200007, 23.865255300000058], [90.43720680000007, 23.86605619200003], [90.43427982600008, 23.86343098100008], [90.43844263900007, 23.856988718000025], [90.43933429700007, 23.860024434000024], [90.44373796400004, 23.859707532000073], [90.44801458100005, 23.854581151000048], [90.44729108600006, 23.852304281000045], [90.44898735100008, 23.849210846000062], [90.45392227100007, 23.848754365000048]]]}}, {"type": "Feature", "properties": {"id": 46, "name_en": "Uttara", "name_bn": null, "division": "Dhaka", "district": "Dhaka", "source": "geoBoundaries gbOpen BGD ADM3", "source_id": "5055444B45163668529800"}, "geometry": {"type": "Polygon", "coordinates": [[[90.40719500200004, 23.857920715000034], [90.40649298400007, 23.881967280000026], [90.39571533000009, 23.88015701000006], [90.39239331800007, 23.883587184000078], [90.39372958800004, 23.888360271000067], [90.39030377400007, 23.890501364000045], [90.39048714900008, 23.893646137000076], [90.38578874900008, 23.893385984000076], [90.38476376900007, 23.894900654000025], [90.38283925600007, 23.894913657000075], [90.38222983300005, 23.893041138000058], [90.38541474700008, 23.892797203000043], [90.38558649500004, 23.88961785400005], [90.38768497800004, 23.889598699000032], [90.38697735900007, 23.887719504000074], [90.38463579400008, 23.887211751000052], [90.38715633400005, 23.88698332200005], [90.38776327300008, 23.885475623000048], [90.38716915100008, 23.878605650000054], [90.37961191000005, 23.875275199000043], [90.37920589000004, 23.87245414700004], [90.37942342800005, 23.869160744000055], [90.38654919500004, 23.857577716000037], [90.39246690700008, 23.86126084800003], [90.40036882300006, 23.860711550000076], [90.40638803900003, 23.85367018900007], [90.40719500200004, 23.857920715000034]]]}}]}